[{"OBJECT_NAME":"SYNCOM 2 (A 26)","OBJECT_ID":"1963-031A","EPOCH":"2026-04-22T20:59:50.650656","MEAN_MOTION":1.00254724,"ECCENTRICITY":0.00061929,"INCLINATION":30.1024,"RA_OF_ASC_NODE":301.2284,"ARG_OF_PERICENTER":197.7373,"MEAN_ANOMALY":96.8485,"EPHEMERIS_TYPE":0,"CLASSIFICATION_TYPE":"U","NORAD_CAT_ID":634,"ELEMENT_SET_NO":999,"REV_AT_EPOCH":22980,"BSTAR":0,"MEAN_MOTION_DOT":-5.3e-7,"MEAN_MOTION_DDOT":0},{"OBJECT_NAME":"SYNCOM 3","OBJECT_ID":"1964-047A","EPOCH":"2026-04-22T16:26:09.616992","MEAN_MOTION":1.00393054,"ECCENTRICITY":0.00028486,"INCLINATION":6.8332,"RA_OF_ASC_NODE":65.0578,"ARG_OF_PERICENTER":181.0698,"MEAN_ANOMALY":266.1042,"EPHEMERIS_TYPE":0,"CLASSIFICATION_TYPE":"U","NORAD_CAT_ID":858,"ELEMENT_SET_NO":999,"REV_AT_EPOCH":5291,"BSTAR":0,"MEAN_MOTION_DOT":5.4e-7,"MEAN_MOTION_DDOT":0},{"OBJECT_NAME":"DELTA 1 R/B","OBJECT_ID":"1964-047B","EPOCH":"2026-04-25T05:49:04.958400","MEAN_MOTION":2.05109627,"ECCENTRICITY":0.711164,"INCLINATION":16.7946,"RA_OF_ASC_NODE":348.4426,"ARG_OF_PERICENTER":357.8699,"MEAN_ANOMALY":0.4031,"EPHEMERIS_TYPE":0,"CLASSIFICATION_TYPE":"U","NORAD_CAT_ID":862,"ELEMENT_SET_NO":999,"REV_AT_EPOCH":25707,"BSTAR":0,"MEAN_MOTION_DOT":-2.63e-6,"MEAN_MOTION_DDOT":0},{"OBJECT_NAME":"INTELSAT 1-F1","OBJECT_ID":"1965-028A","EPOCH":"2026-04-25T14:27:30.446208","MEAN_MOTION":1.00178388,"ECCENTRICITY":0.0004915,"INCLINATION":7.0303,"RA_OF_ASC_NODE":64.2596,"ARG_OF_PERICENTER":155.5457,"MEAN_ANOMALY":103.8038,"EPHEMERIS_TYPE":0,"CLASSIFICATION_TYPE":"U","NORAD_CAT_ID":1317,"ELEMENT_SET_NO":999,"REV_AT_EPOCH":12664,"BSTAR":0,"MEAN_MOTION_DOT":-7.7e-7,"MEAN_MOTION_DDOT":0},{"OBJECT_NAME":"DELTA 1 R/B(2)","OBJECT_ID":"1965-028B","EPOCH":"2026-04-25T11:23:05.178336","MEAN_MOTION":2.11825968,"ECCENTRICITY":0.6940222,"INCLINATION":17.8575,"RA_OF_ASC_NODE":280.3695,"ARG_OF_PERICENTER":124.1335,"MEAN_ANOMALY":308.9932,"EPHEMERIS_TYPE":0,"CLASSIFICATION_TYPE":"U","NORAD_CAT_ID":1318,"ELEMENT_SET_NO":999,"REV_AT_EPOCH":10620,"BSTAR":0,"MEAN_MOTION_DOT":-2.85e-6,"MEAN_MOTION_DDOT":0},{"OBJECT_NAME":"INTELSAT 2-F1","OBJECT_ID":"1966-096A","EPOCH":"2026-04-25T07:58:53.472576","MEAN_MOTION":2.00358455,"ECCENTRICITY":0.6397962,"INCLINATION":17.7888,"RA_OF_ASC_NODE":64.9211,"ARG_OF_PERICENTER":163.4063,"MEAN_ANOMALY":235.5428,"EPHEMERIS_TYPE":0,"CLASSIFICATION_TYPE":"U","NORAD_CAT_ID":2514,"ELEMENT_SET_NO":999,"REV_AT_EPOCH":9375,"BSTAR":0,"MEAN_MOTION_DOT":-4.03e-6,"MEAN_MOTION_DDOT":0},{"OBJECT_NAME":"ATS 1","OBJECT_ID":"1966-110A","EPOCH":"2026-04-25T19:25:45.328224","MEAN_MOTION":1.00313176,"ECCENTRICITY":0.0006235,"INCLINATION":4.8433,"RA_OF_ASC_NODE":70.4045,"ARG_OF_PERICENTER":193.1106,"MEAN_ANOMALY":26.1345,"EPHEMERIS_TYPE":0,"CLASSIFICATION_TYPE":"U","NORAD_CAT_ID":2608,"ELEMENT_SET_NO":999,"REV_AT_EPOCH":13427,"BSTAR":0,"MEAN_MOTION_DOT":-2.51e-6,"MEAN_MOTION_DDOT":0},{"OBJECT_NAME":"INTELSAT 2-F2","OBJECT_ID":"1967-001A","EPOCH":"2026-04-25T18:32:57.890400","MEAN_MOTION":1.00202011,"ECCENTRICITY":0.0006399,"INCLINATION":3.1195,"RA_OF_ASC_NODE":77.7598,"ARG_OF_PERICENTER":214.3342,"MEAN_ANOMALY":158.9521,"EPHEMERIS_TYPE":0,"CLASSIFICATION_TYPE":"U","NORAD_CAT_ID":2639,"ELEMENT_SET_NO":999,"REV_AT_EPOCH":11872,"BSTAR":0,"MEAN_MOTION_DOT":-2.78e-6,"MEAN_MOTION_DDOT":0},{"OBJECT_NAME":"INTELSAT 2-F3","OBJECT_ID":"1967-026A","EPOCH":"2026-04-25T17:06:33.979392","MEAN_MOTION":1.00328653,"ECCENTRICITY":0.0018015,"INCLINATION":3.9524,"RA_OF_ASC_NODE":68.29,"ARG_OF_PERICENTER":228.5361,"MEAN_ANOMALY":189.9619,"EPHEMERIS_TYPE":0,"CLASSIFICATION_TYPE":"U","NORAD_CAT_ID":2717,"ELEMENT_SET_NO":999,"REV_AT_EPOCH":12337,"BSTAR":0,"MEAN_MOTION_DOT":1.0e-6,"MEAN_MOTION_DDOT":0},{"OBJECT_NAME":"TITAN 3C TRANSTAGE R/B","OBJECT_ID":"1967-040F","EPOCH":"2026-04-26T06:42:52.591104","MEAN_MOTION":0.50944923,"ECCENTRICITY":0.79220984,"INCLINATION":16.088,"RA_OF_ASC_NODE":209.1408,"ARG_OF_PERICENTER":352.4737,"MEAN_ANOMALY":0.2597,"EPHEMERIS_TYPE":0,"CLASSIFICATION_TYPE":"U","NORAD_CAT_ID":2770,"ELEMENT_SET_NO":999,"REV_AT_EPOCH":2304,"BSTAR":0,"MEAN_MOTION_DOT":-1.076e-5,"MEAN_MOTION_DDOT":0},{"OBJECT_NAME":"INTELSAT 2-F4","OBJECT_ID":"1967-094A","EPOCH":"2026-04-25T12:10:50.788128","MEAN_MOTION":1.00378446,"ECCENTRICITY":0.0009685,"INCLINATION":3.9437,"RA_OF_ASC_NODE":74.735,"ARG_OF_PERICENTER":147.3655,"MEAN_ANOMALY":78.8622,"EPHEMERIS_TYPE":0,"CLASSIFICATION_TYPE":"U","NORAD_CAT_ID":2969,"ELEMENT_SET_NO":999,"REV_AT_EPOCH":11478,"BSTAR":0,"MEAN_MOTION_DOT":-1.76e-6,"MEAN_MOTION_DDOT":0},{"OBJECT_NAME":"ATS 3","OBJECT_ID":"1967-111A","EPOCH":"2026-04-25T12:16:50.282976","MEAN_MOTION":1.00271973,"ECCENTRICITY":0.0015274,"INCLINATION":3.0434,"RA_OF_ASC_NODE":78.9681,"ARG_OF_PERICENTER":30.5719,"MEAN_ANOMALY":182.9296,"EPHEMERIS_TYPE":0,"CLASSIFICATION_TYPE":"U","NORAD_CAT_ID":3029,"ELEMENT_SET_NO":999,"REV_AT_EPOCH":21410,"BSTAR":0,"MEAN_MOTION_DOT":-9.9e-7,"MEAN_MOTION_DDOT":0},{"OBJECT_NAME":"OPS 2222","OBJECT_ID":"1968-063A","EPOCH":"2026-04-25T13:57:42.849216","MEAN_MOTION":0.99249603,"ECCENTRICITY":0.0895453,"INCLINATION":6.0515,"RA_OF_ASC_NODE":282.6927,"ARG_OF_PERICENTER":230.4644,"MEAN_ANOMALY":346.0545,"EPHEMERIS_TYPE":0,"CLASSIFICATION_TYPE":"U","NORAD_CAT_ID":3334,"ELEMENT_SET_NO":999,"REV_AT_EPOCH":2560,"BSTAR":0,"MEAN_MOTION_DOT":-6.9e-7,"MEAN_MOTION_DDOT":0},{"OBJECT_NAME":"OV2-5","OBJECT_ID":"1968-081A","EPOCH":"2026-04-25T19:10:39.273888","MEAN_MOTION":1.0156138,"ECCENTRICITY":0.0080583,"INCLINATION":1.8972,"RA_OF_ASC_NODE":49.227,"ARG_OF_PERICENTER":284.3093,"MEAN_ANOMALY":259.8427,"EPHEMERIS_TYPE":0,"CLASSIFICATION_TYPE":"U","NORAD_CAT_ID":3428,"ELEMENT_SET_NO":999,"REV_AT_EPOCH":12052,"BSTAR":0,"MEAN_MOTION_DOT":-3.1e-6,"MEAN_MOTION_DDOT":0},{"OBJECT_NAME":"LES-6","OBJECT_ID":"1968-081D","EPOCH":"2026-04-25T18:03:00.761760","MEAN_MOTION":1.00303488,"ECCENTRICITY":0.0009687,"INCLINATION":1.4491,"RA_OF_ASC_NODE":37.7379,"ARG_OF_PERICENTER":304.0877,"MEAN_ANOMALY":357.5101,"EPHEMERIS_TYPE":0,"CLASSIFICATION_TYPE":"U","NORAD_CAT_ID":3431,"ELEMENT_SET_NO":999,"REV_AT_EPOCH":12025,"BSTAR":0,"MEAN_MOTION_DOT":1.06e-6,"MEAN_MOTION_DDOT":0},{"OBJECT_NAME":"TITAN 3C TRANSTAGE R/B","OBJECT_ID":"1968-081E","EPOCH":"2026-04-25T18:56:03.176160","MEAN_MOTION":1.01519438,"ECCENTRICITY":0.0094406,"INCLINATION":1.8565,"RA_OF_ASC_NODE":49.1791,"ARG_OF_PERICENTER":277.6816,"MEAN_ANOMALY":211.3572,"EPHEMERIS_TYPE":0,"CLASSIFICATION_TYPE":"U","NORAD_CAT_ID":3432,"ELEMENT_SET_NO":999,"REV_AT_EPOCH":12145,"BSTAR":0,"MEAN_MOTION_DOT":-5.4e-7,"MEAN_MOTION_DDOT":0},{"OBJECT_NAME":"OPS 0757 (TACSAT)","OBJECT_ID":"1969-013A","EPOCH":"2026-04-25T20:32:38.801760","MEAN_MOTION":1.00408318,"ECCENTRICITY":0.0019631,"INCLINATION":2.7172,"RA_OF_ASC_NODE":74.7985,"ARG_OF_PERICENTER":179.9636,"MEAN_ANOMALY":238.0411,"EPHEMERIS_TYPE":0,"CLASSIFICATION_TYPE":"U","NORAD_CAT_ID":3691,"ELEMENT_SET_NO":999,"REV_AT_EPOCH":11358,"BSTAR":0,"MEAN_MOTION_DOT":-2.06e-6,"MEAN_MOTION_DDOT":0},{"OBJECT_NAME":"TITAN 3C TRANSTAGE R/B","OBJECT_ID":"1969-013B","EPOCH":"2026-04-25T20:14:03.196320","MEAN_MOTION":0.97536148,"ECCENTRICITY":0.0165841,"INCLINATION":1.1732,"RA_OF_ASC_NODE":77.5025,"ARG_OF_PERICENTER":36.618,"MEAN_ANOMALY":357.0877,"EPHEMERIS_TYPE":0,"CLASSIFICATION_TYPE":"U","NORAD_CAT_ID":3692,"ELEMENT_SET_NO":999,"REV_AT_EPOCH":4181,"BSTAR":0,"MEAN_MOTION_DOT":-2.27e-6,"MEAN_MOTION_DDOT":0},{"OBJECT_NAME":"TITAN 3C TRANSTAGE R/B","OBJECT_ID":"1969-046F","EPOCH":"2026-04-27T15:18:40.900032","MEAN_MOTION":0.46190266,"ECCENTRICITY":0.8024438,"INCLINATION":17.2813,"RA_OF_ASC_NODE":36.6939,"ARG_OF_PERICENTER":269.3684,"MEAN_ANOMALY":359.9165,"EPHEMERIS_TYPE":0,"CLASSIFICATION_TYPE":"U","NORAD_CAT_ID":3956,"ELEMENT_SET_NO":999,"REV_AT_EPOCH":2086,"BSTAR":0,"MEAN_MOTION_DOT":-1.62e-6,"MEAN_MOTION_DDOT":0},{"OBJECT_NAME":"ATS 5","OBJECT_ID":"1969-069A","EPOCH":"2026-04-25T20:41:38.807808","MEAN_MOTION":0.99490369,"ECCENTRICITY":0.0005591,"INCLINATION":0.2332,"RA_OF_ASC_NODE":184.985,"ARG_OF_PERICENTER":97.6926,"MEAN_ANOMALY":169.9824,"EPHEMERIS_TYPE":0,"CLASSIFICATION_TYPE":"U","NORAD_CAT_ID":4068,"ELEMENT_SET_NO":999,"REV_AT_EPOCH":4580,"BSTAR":0,"MEAN_MOTION_DOT":-1.85e-6,"MEAN_MOTION_DDOT":0},{"OBJECT_NAME":"ATLAS CENTAUR R/B","OBJECT_ID":"1969-069B","EPOCH":"2026-04-24T20:24:32.622048","MEAN_MOTION":2.04797838,"ECCENTRICITY":0.6676427,"INCLINATION":17.4471,"RA_OF_ASC_NODE":299.7879,"ARG_OF_PERICENTER":216.117,"MEAN_ANOMALY":71.2225,"EPHEMERIS_TYPE":0,"CLASSIFICATION_TYPE":"U","NORAD_CAT_ID":4069,"ELEMENT_SET_NO":999,"REV_AT_EPOCH":42411,"BSTAR":0,"MEAN_MOTION_DOT":-1.45e-6,"MEAN_MOTION_DDOT":0},{"OBJECT_NAME":"SKYNET 1A","OBJECT_ID":"1969-101A","EPOCH":"2026-04-25T14:25:04.220256","MEAN_MOTION":1.0027068,"ECCENTRICITY":0.0024407,"INCLINATION":0.3058,"RA_OF_ASC_NODE":78.0139,"ARG_OF_PERICENTER":164.5916,"MEAN_ANOMALY":84.1221,"EPHEMERIS_TYPE":0,"CLASSIFICATION_TYPE":"U","NORAD_CAT_ID":4250,"ELEMENT_SET_NO":999,"REV_AT_EPOCH":13398,"BSTAR":0,"MEAN_MOTION_DOT":-1.14e-6,"MEAN_MOTION_DDOT":0},{"OBJECT_NAME":"NATO 2A","OBJECT_ID":"1970-021A","EPOCH":"2026-04-25T14:26:03.562368","MEAN_MOTION":1.00281119,"ECCENTRICITY":0.0001945,"INCLINATION":0.5475,"RA_OF_ASC_NODE":301.9424,"ARG_OF_PERICENTER":310.0748,"MEAN_ANOMALY":71.7662,"EPHEMERIS_TYPE":0,"CLASSIFICATION_TYPE":"U","NORAD_CAT_ID":4353,"ELEMENT_SET_NO":999,"REV_AT_EPOCH":12524,"BSTAR":0,"MEAN_MOTION_DOT":-9.7e-7,"MEAN_MOTION_DDOT":0},{"OBJECT_NAME":"INTELSAT 3-F7","OBJECT_ID":"1970-032A","EPOCH":"2026-04-25T07:33:38.776032","MEAN_MOTION":1.0034313,"ECCENTRICITY":0.0003912,"INCLINATION":2.2922,"RA_OF_ASC_NODE":88.7614,"ARG_OF_PERICENTER":237.4738,"MEAN_ANOMALY":122.6856,"EPHEMERIS_TYPE":0,"CLASSIFICATION_TYPE":"U","NORAD_CAT_ID":4376,"ELEMENT_SET_NO":999,"REV_AT_EPOCH":4683,"BSTAR":0,"MEAN_MOTION_DOT":-3.68e-6,"MEAN_MOTION_DDOT":0}]
